start=new Date('2023-02-03T00:00:00.000Z').valueOf();
sats=[{"OBJECT_TYPE":"PAYLOAD","MEAN_MOTION_DOT":"-0.00000907","CLASSIFICATION_TYPE":"U","TLE_LINE1":"1 46760U 20074X   23033.25153198 -.00000907  00000-0 -41988-4 0  9993","DECAY_DATE":null,"MEAN_ANOMALY":"266.1564","OBJECT_NAME":"STARLINK-1896","PERIAPSIS":"546.230","REV_AT_EPOCH":"12593","ECCENTRICITY":"0.00014660","MEAN_ELEMENT_THEORY":"SGP4","INCLINATION":"53.0523","RCS_SIZE":"LARGE","TIME_SYSTEM":"UTC","CENTER_NAME":"EARTH","COUNTRY_CODE":"US","MEAN_MOTION_DDOT":"0.0000000000000","REF_FRAME":"TEME","FILE":"3768366","SITE":"AFETR","ELEMENT_SET_NO":"999","PERIOD":"95.593","NORAD_CAT_ID":"46760","APOAPSIS":"548.261","EPHEMERIS_TYPE":"0","MEAN_MOTION":"15.06389543","GP_ID":"224238270","BSTAR":"-0.00004198800000","ARG_OF_PERICENTER":"93.9593","EPOCH":"2023-02-02T06:02:12.363072","OBJECT_ID":"2020-074X","LAUNCH_DATE":"2020-10-24","TLE_LINE2":"2 46760  53.0523  15.8522 0001466  93.9593 266.1564 15.06389543125935","SEMIMAJOR_AXIS":"6925.381","RA_OF_ASC_NODE":"15.8522"},{"COUNTRY_CODE":"US","REF_FRAME":"TEME","MEAN_MOTION_DDOT":"0.0224010000000","FILE":"3769265","SITE":"AFETR","INCLINATION":"53.0330","RCS_SIZE":"LARGE","CENTER_NAME":"EARTH","TIME_SYSTEM":"UTC","PERIAPSIS":"245.173","REV_AT_EPOCH":"12793","ECCENTRICITY":"0.00093190","MEAN_ELEMENT_THEORY":"SGP4","OBJECT_TYPE":"PAYLOAD","MEAN_MOTION_DOT":"0.03467026","CLASSIFICATION_TYPE":"U","TLE_LINE1":"1 46763U 20074AA  23034.07431233  .03467026  22401-1  50928-2 0  9998","MEAN_ANOMALY":"211.8871","DECAY_DATE":null,"OBJECT_NAME":"STARLINK-1902","LAUNCH_DATE":"2020-10-24","TLE_LINE2":"2 46763  53.0330 238.9031 0009319 295.7043 211.8871 16.08358782127938","SEMIMAJOR_AXIS":"6629.486","RA_OF_ASC_NODE":"238.9031","ARG_OF_PERICENTER":"295.7043","EPOCH":"2023-02-03T01:47:00.585312","OBJECT_ID":"2020-074AA","NORAD_CAT_ID":"46763","MEAN_MOTION":"16.08358782","APOAPSIS":"257.529","EPHEMERIS_TYPE":"0","GP_ID":"224265077","BSTAR":"0.00509280000000","ELEMENT_SET_NO":"999","PERIOD":"89.532"},{"OBJECT_ID":"2020-074AB","ARG_OF_PERICENTER":"89.0310","EPOCH":"2023-02-02T10:38:11.992704","SEMIMAJOR_AXIS":"6925.348","TLE_LINE2":"2 46764  53.0553  14.9874 0001652  89.0310 271.0868 15.06400238125973","RA_OF_ASC_NODE":"14.9874","LAUNCH_DATE":"2020-10-24","ELEMENT_SET_NO":"999","PERIOD":"95.592","GP_ID":"224253138","BSTAR":"-0.00001696800000","NORAD_CAT_ID":"46764","EPHEMERIS_TYPE":"0","APOAPSIS":"548.357","MEAN_MOTION":"15.06400238","RCS_SIZE":"LARGE","TIME_SYSTEM":"UTC","CENTER_NAME":"EARTH","INCLINATION":"53.0553","FILE":"3768790","SITE":"AFETR","COUNTRY_CODE":"US","MEAN_MOTION_DDOT":"0.0000000000000","REF_FRAME":"TEME","CLASSIFICATION_TYPE":"U","TLE_LINE1":"1 46764U 20074AB  23033.44319436 -.00000534  00000-0 -16968-4 0  9993","DECAY_DATE":null,"MEAN_ANOMALY":"271.0868","OBJECT_NAME":"STARLINK-1903","OBJECT_TYPE":"PAYLOAD","MEAN_MOTION_DOT":"-0.00000534","MEAN_ELEMENT_THEORY":"SGP4","PERIAPSIS":"546.069","ECCENTRICITY":"0.00016520","REV_AT_EPOCH":"12597"},{"EPOCH":"2023-02-02T23:06:35.484480","ARG_OF_PERICENTER":"84.8081","OBJECT_ID":"2020-074AC","LAUNCH_DATE":"2020-10-24","RA_OF_ASC_NODE":"12.6398","TLE_LINE2":"2 46765  53.0570  12.6398 0001552  84.8081 275.3085 15.06402687125761","SEMIMAJOR_AXIS":"6925.340","ELEMENT_SET_NO":"999","PERIOD":"95.592","EPHEMERIS_TYPE":"0","APOAPSIS":"548.280","MEAN_MOTION":"15.06402687","NORAD_CAT_ID":"46765","BSTAR":"-0.00005152900000","GP_ID":"224253140","INCLINATION":"53.0570","CENTER_NAME":"EARTH","TIME_SYSTEM":"UTC","RCS_SIZE":"LARGE","MEAN_MOTION_DDOT":"0.0000000000000","REF_FRAME":"TEME","COUNTRY_CODE":"US","SITE":"AFETR","FILE":"3768791","MEAN_MOTION_DOT":"-0.00001049","OBJECT_TYPE":"PAYLOAD","OBJECT_NAME":"STARLINK-1906","TLE_LINE1":"1 46765U 20074AC  23033.96291070 -.00001049  00000-0 -51529-4 0  9998","MEAN_ANOMALY":"275.3085","DECAY_DATE":null,"CLASSIFICATION_TYPE":"U","ECCENTRICITY":"0.00015520","REV_AT_EPOCH":"12576","PERIAPSIS":"546.131","MEAN_ELEMENT_THEORY":"SGP4"},{"TLE_LINE1":"1 46766U 20074AD  23033.35841616  .00000553  00000-0  56043-4 0  9992","DECAY_DATE":null,"MEAN_ANOMALY":"270.5180","OBJECT_NAME":"STARLINK-1916","CLASSIFICATION_TYPE":"U","OBJECT_TYPE":"PAYLOAD","MEAN_MOTION_DOT":"0.00000553","MEAN_ELEMENT_THEORY":"SGP4","PERIAPSIS":"546.178","REV_AT_EPOCH":"12595","ECCENTRICITY":"0.00014930","TIME_SYSTEM":"UTC","CENTER_NAME":"EARTH","RCS_SIZE":"LARGE","INCLINATION":"53.0533","SITE":"AFETR","FILE":"3768366","COUNTRY_CODE":"US","MEAN_MOTION_DDOT":"0.0000000000000","REF_FRAME":"TEME","ELEMENT_SET_NO":"999","PERIOD":"95.592","BSTAR":"0.00005604300000","GP_ID":"224238770","APOAPSIS":"548.246","MEAN_MOTION":"15.06400439","EPHEMERIS_TYPE":"0","NORAD_CAT_ID":"46766","OBJECT_ID":"2020-074AD","EPOCH":"2023-02-02T08:36:07.156224","ARG_OF_PERICENTER":"89.5980","RA_OF_ASC_NODE":"15.3637","TLE_LINE2":"2 46766  53.0533  15.3637 0001493  89.5980 270.5180 15.06400439125958","SEMIMAJOR_AXIS":"6925.347","LAUNCH_DATE":"2020-10-24"},{"TLE_LINE2":"2 46767  53.0561  12.8394 0001565  91.3682 268.7486 15.06397349126046","SEMIMAJOR_AXIS":"6925.357","RA_OF_ASC_NODE":"12.8394","LAUNCH_DATE":"2020-10-24","OBJECT_ID":"2020-074AE","ARG_OF_PERICENTER":"91.3682","EPOCH":"2023-02-02T22:02:54.091968","GP_ID":"224253902","BSTAR":"0.00003544100000","NORAD_CAT_ID":"46767","MEAN_MOTION":"15.06397349","APOAPSIS":"548.306","EPHEMERIS_TYPE":"0","PERIOD":"95.592","ELEMENT_SET_NO":"999","FILE":"3768819","SITE":"AFETR","MEAN_MOTION_DDOT":"0.0000000000000","REF_FRAME":"TEME","COUNTRY_CODE":"US","RCS_SIZE":"LARGE","TIME_SYSTEM":"UTC","CENTER_NAME":"EARTH","INCLINATION":"53.0561","MEAN_ELEMENT_THEORY":"SGP4","REV_AT_EPOCH":"12604","ECCENTRICITY":"0.00015650","PERIAPSIS":"546.138","CLASSIFICATION_TYPE":"U","OBJECT_NAME":"STARLINK-1917","TLE_LINE1":"1 46767U 20074AE  23033.91868162  .00000246  00000-0  35441-4 0  9998","MEAN_ANOMALY":"268.7486","DECAY_DATE":null,"MEAN_MOTION_DOT":"0.00000246","OBJECT_TYPE":"PAYLOAD"},{"EPOCH":"2023-02-02T07:48:21.204288","ARG_OF_PERICENTER":"95.6507","OBJECT_ID":"2020-074AF","LAUNCH_DATE":"2020-10-24","RA_OF_ASC_NODE":"15.5103","TLE_LINE2":"2 46768  53.0555  15.5103 0001363  95.6507 264.4638 15.06397896125944","SEMIMAJOR_AXIS":"6925.355","ELEMENT_SET_NO":"999","PERIOD":"95.592","APOAPSIS":"548.164","MEAN_MOTION":"15.06397896","EPHEMERIS_TYPE":"0","NORAD_CAT_ID":"46768","BSTAR":"0.00005609500000","GP_ID":"224237284","INCLINATION":"53.0555","TIME_SYSTEM":"UTC","CENTER_NAME":"EARTH","RCS_SIZE":"LARGE","REF_FRAME":"TEME","MEAN_MOTION_DDOT":"0.0000000000000","COUNTRY_CODE":"US","SITE":"AFETR","FILE":"3768366","MEAN_MOTION_DOT":"0.00000554","OBJECT_TYPE":"PAYLOAD","OBJECT_NAME":"STARLINK-1918","TLE_LINE1":"1 46768U 20074AF  23033.32524542  .00000554  00000-0  56095-4 0  9995","DECAY_DATE":null,"MEAN_ANOMALY":"264.4638","CLASSIFICATION_TYPE":"U","ECCENTRICITY":"0.00013630","REV_AT_EPOCH":"12594","PERIAPSIS":"546.276","MEAN_ELEMENT_THEORY":"SGP4"},{"COUNTRY_CODE":"US","REF_FRAME":"TEME","MEAN_MOTION_DDOT":"0.0000000000000","SITE":"AFETR","FILE":"3768366","INCLINATION":"53.0531","TIME_SYSTEM":"UTC","CENTER_NAME":"EARTH","RCS_SIZE":"LARGE","PERIAPSIS":"546.303","ECCENTRICITY":"0.00013040","REV_AT_EPOCH":"12592","MEAN_ELEMENT_THEORY":"SGP4","OBJECT_TYPE":"PAYLOAD","MEAN_MOTION_DOT":"0.00002336","TLE_LINE1":"1 46770U 20074AH  23033.26633578  .00002336  00000-0  17564-3 0  9998","DECAY_DATE":null,"MEAN_ANOMALY":"260.2975","OBJECT_NAME":"STARLINK-1932","CLASSIFICATION_TYPE":"U","LAUNCH_DATE":"2020-10-24","RA_OF_ASC_NODE":"16.3336","TLE_LINE2":"2 46770  53.0531  16.3336 0001304  99.8162 260.2975 15.06402393125921","SEMIMAJOR_AXIS":"6925.341","EPOCH":"2023-02-02T06:23:31.411392","ARG_OF_PERICENTER":"99.8162","OBJECT_ID":"2020-074AH","APOAPSIS":"548.109","MEAN_MOTION":"15.06402393","EPHEMERIS_TYPE":"0","NORAD_CAT_ID":"46770","BSTAR":"0.00017564000000","GP_ID":"224238030","ELEMENT_SET_NO":"999","PERIOD":"95.592"},{"APOAPSIS":"548.109","EPHEMERIS_TYPE":"0","MEAN_MOTION":"15.06405346","NORAD_CAT_ID":"46772","BSTAR":"0.00039137000000","GP_ID":"224238271","PERIOD":"95.592","ELEMENT_SET_NO":"999","LAUNCH_DATE":"2020-10-24","RA_OF_ASC_NODE":"15.4784","TLE_LINE2":"2 46772  53.0538  15.4784 0001316 103.9357 256.1779 15.06405346125942","SEMIMAJOR_AXIS":"6925.332","EPOCH":"2023-02-02T07:57:36.015840","ARG_OF_PERICENTER":"103.9357","OBJECT_ID":"2020-074AK","PERIAPSIS":"546.286","REV_AT_EPOCH":"12594","ECCENTRICITY":"0.00013160","MEAN_ELEMENT_THEORY":"SGP4","OBJECT_TYPE":"PAYLOAD","MEAN_MOTION_DOT":"0.00005554","TLE_LINE1":"1 46772U 20074AK  23033.33166685  .00005554  00000-0  39137-3 0  9993","MEAN_ANOMALY":"256.1779","DECAY_DATE":null,"OBJECT_NAME":"STARLINK-1936","CLASSIFICATION_TYPE":"U","COUNTRY_CODE":"US","MEAN_MOTION_DDOT":"0.0000000000000","REF_FRAME":"TEME","SITE":"AFETR","FILE":"3768366","INCLINATION":"53.0538","TIME_SYSTEM":"UTC","CENTER_NAME":"EARTH","RCS_SIZE":"LARGE"},{"SEMIMAJOR_AXIS":"6837.614","TLE_LINE2":"2 46774  53.0531 340.3420 0005097 129.7323 230.4129 15.35486117126495","RA_OF_ASC_NODE":"340.3420","LAUNCH_DATE":"2020-10-24","OBJECT_ID":"2020-074AM","ARG_OF_PERICENTER":"129.7323","EPOCH":"2023-02-02T19:30:22.768128","GP_ID":"224256674","BSTAR":"0.00251520000000","NORAD_CAT_ID":"46774","EPHEMERIS_TYPE":"0","APOAPSIS":"462.964","MEAN_MOTION":"15.35486117","PERIOD":"93.781","ELEMENT_SET_NO":"999","FILE":"3768927","SITE":"AFETR","REF_FRAME":"TEME","MEAN_MOTION_DDOT":"0.0000000000000","COUNTRY_CODE":"US","RCS_SIZE":"LARGE","TIME_SYSTEM":"UTC","CENTER_NAME":"EARTH","INCLINATION":"53.0531","MEAN_ELEMENT_THEORY":"SGP4","REV_AT_EPOCH":"12649","ECCENTRICITY":"0.00050970","PERIAPSIS":"455.994","CLASSIFICATION_TYPE":"U","OBJECT_NAME":"STARLINK-1939","TLE_LINE1":"1 46774U 20074AM  23033.81276352  .00088669  00000-0  25152-2 0  9990","MEAN_ANOMALY":"230.4129","DECAY_DATE":null,"MEAN_MOTION_DOT":"0.00088669","OBJECT_TYPE":"PAYLOAD"}];
